[{"OBJECT_NAME":"LEMUR-2-AMANDA-SVANTE","OBJECT_ID":"2021-034B","EPOCH":"2026-03-09T18:37:58.823328","MEAN_MOTION":15.28469003,"ECCENTRICITY":0.00027027,"INCLINATION":97.5829,"RA_OF_ASC_NODE":144.8625,"ARG_OF_PERICENTER":205.4721,"MEAN_ANOMALY":154.6385,"EPHEMERIS_TYPE":0,"CLASSIFICATION_TYPE":"U","NORAD_CAT_ID":48269,"ELEMENT_SET_NO":999,"REV_AT_EPOCH":26584,"BSTAR":0.0011134246,"MEAN_MOTION_DOT":0.00030872,"MEAN_MOTION_DDOT":0},{"OBJECT_NAME":"STARLINK-34494","OBJECT_ID":"2025-137T","EPOCH":"2026-03-09T22:40:37.860096","MEAN_MOTION":15.30209002,"ECCENTRICITY":0.00023273,"INCLINATION":53.1593,"RA_OF_ASC_NODE":334.0758,"ARG_OF_PERICENTER":152.5769,"MEAN_ANOMALY":207.5355,"EPHEMERIS_TYPE":0,"CLASSIFICATION_TYPE":"U","NORAD_CAT_ID":64611,"ELEMENT_SET_NO":999,"REV_AT_EPOCH":4077,"BSTAR":0.0011990034,"MEAN_MOTION_DOT":0.00035332,"MEAN_MOTION_DDOT":0}]
